STARLINK-4420           
1 53654C 22105G   26126.76506944 -.00050894  00000+0 -35336-2 0  1262
2 53654  97.5245   8.3252 0002419  70.0034 334.8209 15.05679379    19
STARLINK-4470           
1 53655C 22105H   26126.76437500  .00471870  00000+0  16435-1 0  1261
2 53655  97.6022   9.3527 0001444  78.3692 332.9996 15.29492628    16
STARLINK-4466           
1 53656C 22105J   26126.67548611  .00003704  00000+0  25723-3 0  1267
2 53656  97.5243   7.1992 0002100  81.7370 280.0349 15.05643697    17
STARLINK-4452           
1 53658C 22105L   26126.71159722 -.00026658  00000+0 -18510-2 0  1265
2 53658  97.5245   8.3599 0002078  67.7731 272.3553 15.05665524    10
STARLINK-4473           
1 53660C 22105N   26126.71715278 -.00029841  00000+0 -20719-2 0  1263
2 53660  97.5239   7.2471 0002370  75.5104 197.0489 15.05668811    12
STARLINK-4472           
1 53661C 22105P   26126.69562500 -.00015319  00000+0 -10632-2 0  1267
2 53661  97.5243   7.1633 0002200  75.9457 274.9749 15.05676067    10
STARLINK-4357           
1 53662C 22105Q   26126.74631944  .00340110  00000+0  12409-1 0  1264
2 53662  97.6025   9.0174 0001843  78.2328 313.8410 15.28037121    11
STARLINK-4457           
1 53663C 22105R   26126.74770833 -.00047778  00000+0 -33174-2 0  1265
2 53663  97.5243   8.3925 0003027  77.9862 112.7555 15.05675013    13
STARLINK-4471           
1 53664C 22105S   26126.74631944 -.00050753  00000+0 -35239-2 0  1266
2 53664  97.5244   8.3052 0002081  85.5812 292.6797 15.05679684    19
STARLINK-4334           
1 53665C 22105T   26126.70395833  .00299250  00000+0  10740-1 0  1261
2 53665  97.6025   9.3399 0001680  77.1190 193.5530 15.28598999    11
STARLINK-4406           
1 53667C 22105V   26126.68104167  .00111070  00000+0  43254-2 0  1268
2 53667  97.6027   9.2672 0001470  83.0139 311.1111 15.25998077    15
STARLINK-4458           
1 53668C 22105W   26126.75048611  .00384240  00000+0  15559-1 0  1265
2 53668  97.6027   9.4594 0002053  81.2571 356.7941 15.24553617    11
STARLINK-4464           
1 53669C 22105X   26126.67756944  .00102810  00000+0  38352-2 0  1260
2 53669  97.6026   8.0695 0001905  71.1425  25.2367 15.27426028    17
STARLINK-4459           
1 53670C 22105Y   26126.68937500 -.00005683  00000+0 -39455-3 0  1260
2 53670  97.5246   8.3277 0002319  81.3107 213.4526 15.05656212    15
STARLINK-4440           
1 53671C 22105Z   26126.75951389 -.00049629  00000+0 -34460-2 0  1268
2 53671  97.5237   7.2136 0002076  83.5783 298.4698 15.05677089    10
STARLINK-4428           
1 53672C 22105AA  26126.76368056 -.00057286  00000+0 -39778-2 0  1268
2 53672  97.5238   7.2725 0002932  86.0506 123.5512 15.05677985    16
STARLINK-4456           
1 53673C 22105AB  26126.67340278 -.00017069  00000+0 -92409-3 0  1261
2 53673  97.6035   8.5783 0002445  96.0080  10.9861 15.14721541    12
STARLINK-4620           
1 53674C 22105AC  26126.76159722 -.00057431  00000+0 -39877-2 0  1260
2 53674  97.5233   7.2549 0002512  85.1258  83.2051 15.05680661    10
STARLINK-4617           
1 53675C 22105AD  26126.68868056 -.00001962  00000+0 -13624-3 0  1260
2 53675  97.5253   8.3563 0002246  85.0100 310.8885 15.05646316    13
STARLINK-4621           
1 53676C 22105AE  26126.69354167 -.00012661  00000+0 -87906-3 0  1267
2 53676  97.5243   7.2227 0002641  80.5753 184.0901 15.05660949    19
STARLINK-4579           
1 53677C 22105AF  26126.68312500  .00001648  00000+0  11444-3 0  1267
2 53677  97.5245   8.3002 0002433  76.1406 154.7747 15.05655059    18
STARLINK-4632           
1 53679C 22105AH  26126.70118056 -.00012486  00000+0 -86696-3 0  1267
2 53679  97.5242   8.3861 0002003  85.4656  63.2220 15.05660087    10
STARLINK-4630           
1 53680C 22105AJ  26126.70395833 -.00020125  00000+0 -13973-2 0  1265
2 53680  97.5242   8.3018 0002147  73.5490 285.2292 15.05665755    11
STARLINK-4424           
1 53681C 22105AK  26126.70812500  .00100950  00000+0  31260-2 0  1263
2 53681  97.6026   8.3706 0001995  78.1129 191.0449 15.33461291    15
STARLINK-4438           
1 53682C 22105AL  26126.69701389 -.00011594  00000+0 -80488-3 0  1268
2 53682  97.5235   8.2469 0002782  86.6010 129.5833 15.05662389    13
STARLINK-4625           
1 53683C 22105AM  26126.74493056 -.00047735  00000+0 -33146-2 0  1268
2 53683  97.5242   7.2828 0002394  83.2956 144.7266 15.05674516    15
STARLINK-4624           
1 53684C 22105AN  26126.76229167 -.00055606  00000+0 -38609-2 0  1266
2 53684  97.5234   7.2528 0002683  91.6726 215.2882 15.05679938    14
STARLINK-4626           
1 53685C 22105AP  26126.71020833 -.00024194  00000+0 -16798-2 0  1264
2 53685  97.5247   7.1445 0002194  86.1262  88.8615 15.05667084    14
STARLINK-4467           
1 53686C 22105AQ  26126.69284722 -.00009250  00000+0 -64224-3 0  1265
2 53686  97.5244   7.1393 0002553  74.5320  51.3990 15.05657788    10
STARLINK-4569           
1 53687C 22105AR  26126.71437500 -.00028709  00000+0 -19934-2 0  1260
2 53687  97.5243   8.2654 0002538  87.7164 237.5069 15.05666661    12
STARLINK-4571           
1 53688C 22105AS  26126.69006944 -.00011235  00000+0 -77997-3 0  1262
2 53688  97.5245   7.1648 0002561  85.2712 115.6087 15.05662681    18
STARLINK-4570           
1 53690C 22105AU  26126.74284722 -.00046942  00000+0 -32592-2 0  1267
2 53690  97.5236   7.2401 0002382  69.0499 117.6229 15.05677399    14
STARLINK-4560           
1 53691C 22105AV  26126.67687500  .00007750  00000+0  53810-3 0  1260
2 53691  97.5247   8.2695 0002132  77.0017 180.0714 15.05651747    13
STARLINK-4572           
1 53692C 22105AW  26126.69354167  .00005259  00000+0  21470-3 0  1262
2 53692  97.6108  14.4267 0002915  87.5659 235.0844 15.24466488    14
STARLINK-4566           
1 53693C 22105AX  26126.75812500 -.00054241  00000+0 -37661-2 0  1265
2 53693  97.5241   8.4408 0002570  81.6310 135.5243 15.05679752    14
STARLINK-4725           
1 53700C 22107A   26126.68173611 -.00014169  00000+0 -88860-3 0  1264
2 53700  53.2171 343.4112 0001461  92.4275 278.3981 15.08841463    14
STARLINK-4711           
1 53701C 22107B   26126.69493056 -.00019092  00000+0 -11974-2 0  1265
2 53701  53.2169 343.3128 0001414  94.7793   7.7804 15.08843641    14
STARLINK-4724           
1 53702C 22107C   26126.69493056 -.00026472  00000+0 -16605-2 0  1262
2 53702  53.2170 328.6256 0001773  87.1593 237.6836 15.08840509    16
STARLINK-4731           
1 53703C 22107D   26126.70048611 -.00021484  00000+0 -13472-2 0  1265
2 53703  53.2174 343.4437 0001334  97.1919 315.4470 15.08848623    17
STARLINK-4714           
1 53704C 22107E   26126.69145833 -.00017230  00000+0 -10806-2 0  1260
2 53704  53.2167 343.9961 0001429  94.8324   8.4191 15.08841539    14
STARLINK-4717           
1 53705C 22107F   26126.70812500 -.00020131  00000+0 -12625-2 0  1260
2 53705  53.2167 343.8822 0001428  88.4241 125.4380 15.08843471    13
STARLINK-4716           
1 53706C 22107G   26126.69284722 -.00017809  00000+0 -11168-2 0  1267
2 53706  53.2167 343.7964 0001420  96.9605 113.9618 15.08844862    11
STARLINK-4667           
1 53707C 22107H   26126.67756944 -.00024360  00000+0 -15267-2 0  1260
2 53707  53.2174 328.8166 0001455  80.6595  89.7025 15.08871514    10
STARLINK-4694           
1 53708C 22107J   26126.71159722 -.00030701  00000+0 -19253-2 0  1262
2 53708  53.2169 328.5161 0001400  89.6882 345.7619 15.08850827    13
STARLINK-4685           
1 53709C 22107K   26126.71368056 -.00021927  00000+0 -13749-2 0  1269
2 53709  53.2166 348.3346 0001462  94.2138  62.6656 15.08852249    16
STARLINK-4627           
1 53711C 22107M   26126.76784722 -.00029535  00000+0 -18520-2 0  1264
2 53711  53.2171 348.2012 0001190  92.5426 298.6403 15.08853840    12
STARLINK-4683           
1 53712C 22107N   26126.70951389 -.00018312  00000+0 -11483-2 0  1266
2 53712  53.2165 348.2055 0001675  94.5902 119.7448 15.08848201    19
STARLINK-4686           
1 53715C 22107R   26126.76576389 -.00030525  00000+0 -19143-2 0  1269
2 53715  53.2165 353.1242 0001419  94.2035 318.2274 15.08849593    13
STARLINK-4699           
1 53716C 22107S   26126.71437500 -.00015831  00000+0 -99281-3 0  1261
2 53716  53.2164 353.3144 0001569  93.1055  60.0706 15.08843437    15
STARLINK-4695           
1 53718C 22107U   26126.67687500 -.00001919  00000+0 -12034-3 0  1268
2 53718  53.2167 354.0702 0001369  91.9976 271.7957 15.08832580    10
STARLINK-4644           
1 53719C 22107V   26126.68590278 -.00029992  00000+0 -18811-2 0  1264
2 53719  53.2166 323.3892 0001414  94.4867 308.9834 15.08845938    15
STARLINK-4642           
1 53720C 22107W   26126.67270833 -.00000001  00000+0 -40787-7 0  1269
2 53720  53.2162 353.5799 0001442  97.6617 149.0152 15.08835010    10
STARLINK-4707           
1 53721C 22107X   26126.67687500 -.00001337  00000+0 -83816-4 0  1263
2 53721  53.2169 353.6426 0001441  90.8143 138.4458 15.08839635    12
STARLINK-4700           
1 53722C 22107Y   26126.71506944 -.00015768  00000+0 -98889-3 0  1269
2 53722  53.2170 353.5445 0001464  96.4030 300.3930 15.08842470    13
STARLINK-4705           
1 53723C 22107Z   26126.69284722 -.00008567  00000+0 -53735-3 0  1264
2 53723  53.2164 353.3793 0001401  87.6053 328.5736 15.08834831    17
STARLINK-4663           
1 53724C 22107AA  26126.67895833 -.00005433  00000+0 -34059-3 0  1261
2 53724  53.2168 353.5945 0001604  95.8567 164.7297 15.08850138    19
STARLINK-4697           
1 53726C 22107AC  26126.68312500 -.00003272  00000+0 -20523-3 0  1269
2 53726  53.2169 353.6518 0001407  87.9705 155.2428 15.08834305    15
STARLINK-4701           
1 53727C 22107AD  26126.68729167 -.00004617  00000+0 -28960-3 0  1268
2 53727  53.2173 353.7518 0001974  98.2337 107.5625 15.08825329    12
STARLINK-4640           
1 53728C 22107AE  26126.77131944 -.00026593  00000+0 -16676-2 0  1266
2 53728  53.2172 353.3344 0001442  88.2566 234.2006 15.08851566    11
